start=new Date('2022-02-13T00:00:00.000Z').valueOf();
sats=[{"OBJECT_ID":"2021-044L","BSTAR":"0.00029200000000","MEAN_MOTION_DDOT":"0.0000000000000","NORAD_CAT_ID":"48648","DECAY_DATE":null,"MEAN_MOTION_DOT":"0.00004072","RCS_SIZE":"LARGE","GP_ID":"195822108","OBJECT_TYPE":"PAYLOAD","COUNTRY_CODE":"US","MEAN_ELEMENT_THEORY":"SGP4","RA_OF_ASC_NODE":"313.5652","ARG_OF_PERICENTER":"73.3312","OBJECT_NAME":"STARLINK-2521","APOAPSIS":"548.217","CLASSIFICATION_TYPE":"U","FILE":"3298493","PERIAPSIS":"546.113","EPHEMERIS_TYPE":"0","TLE_LINE1":"1 48648U 21044L   22043.46000479  .00004072  00000-0  29200-3 0  9991","EPOCH":"2022-02-12T11:02:24.413856","ECCENTRICITY":"0.00015190","TLE_LINE2":"2 48648  53.0561 313.5652 0001519  73.3312 286.7844 15.06415920 39703","CENTER_NAME":"EARTH","SEMIMAJOR_AXIS":"6925.300","MEAN_ANOMALY":"286.7844","LAUNCH_DATE":"2021-05-26","REF_FRAME":"TEME","TIME_SYSTEM":"UTC","MEAN_MOTION":"15.06415920","ELEMENT_SET_NO":"999","PERIOD":"95.591","INCLINATION":"53.0561","SITE":"AFETR","REV_AT_EPOCH":"3970"},{"CLASSIFICATION_TYPE":"U","FILE":"3298493","OBJECT_NAME":"STARLINK-2673","ARG_OF_PERICENTER":"62.1351","APOAPSIS":"548.458","ECCENTRICITY":"0.00018910","EPHEMERIS_TYPE":"0","PERIAPSIS":"545.839","TLE_LINE1":"1 48649U 21044M   22043.45725660  .00002754  00000-0  20358-3 0  9997","EPOCH":"2022-02-12T10:58:26.970240","TIME_SYSTEM":"UTC","MEAN_ANOMALY":"297.9829","TLE_LINE2":"2 48649  53.0550 313.5676 0001891  62.1351 297.9829 15.06421284 39695","SEMIMAJOR_AXIS":"6925.283","CENTER_NAME":"EARTH","REF_FRAME":"TEME","LAUNCH_DATE":"2021-05-26","SITE":"AFETR","INCLINATION":"53.0550","REV_AT_EPOCH":"3969","MEAN_MOTION":"15.06421284","ELEMENT_SET_NO":"999","PERIOD":"95.591","BSTAR":"0.00020358000000","OBJECT_ID":"2021-044M","MEAN_MOTION_DDOT":"0.0000000000000","MEAN_MOTION_DOT":"0.00002754","RCS_SIZE":"LARGE","GP_ID":"195822357","NORAD_CAT_ID":"48649","DECAY_DATE":null,"RA_OF_ASC_NODE":"313.5676","OBJECT_TYPE":"PAYLOAD","COUNTRY_CODE":"US","MEAN_ELEMENT_THEORY":"SGP4"},{"APOAPSIS":"548.088","ARG_OF_PERICENTER":"78.4651","OBJECT_NAME":"STARLINK-2672","CLASSIFICATION_TYPE":"U","FILE":"3298493","EPOCH":"2022-02-12T10:53:08.673504","TLE_LINE1":"1 48650U 21044N   22043.45357261  .00000629  00000-0  61079-4 0  9992","EPHEMERIS_TYPE":"0","PERIAPSIS":"546.227","ECCENTRICITY":"0.00013440","LAUNCH_DATE":"2021-05-26","REF_FRAME":"TEME","TLE_LINE2":"2 48650  53.0555 313.5924 0001344  78.4651 281.6489 15.06418267 39693","CENTER_NAME":"EARTH","SEMIMAJOR_AXIS":"6925.293","MEAN_ANOMALY":"281.6489","TIME_SYSTEM":"UTC","PERIOD":"95.591","ELEMENT_SET_NO":"999","MEAN_MOTION":"15.06418267","REV_AT_EPOCH":"3969","SITE":"AFETR","INCLINATION":"53.0555","BSTAR":"0.00006107900000","OBJECT_ID":"2021-044N","MEAN_MOTION_DDOT":"0.0000000000000","DECAY_DATE":null,"NORAD_CAT_ID":"48650","GP_ID":"195822607","RCS_SIZE":"LARGE","MEAN_MOTION_DOT":"0.00000629","MEAN_ELEMENT_THEORY":"SGP4","COUNTRY_CODE":"US","OBJECT_TYPE":"PAYLOAD","RA_OF_ASC_NODE":"313.5924"},{"CLASSIFICATION_TYPE":"U","FILE":"3299030","ARG_OF_PERICENTER":"77.7536","OBJECT_NAME":"STARLINK-2731","APOAPSIS":"548.173","ECCENTRICITY":"0.00014090","PERIAPSIS":"546.222","EPHEMERIS_TYPE":"0","TLE_LINE1":"1 48651U 21044P   22043.91431469 -.00004042  00000-0 -25256-3 0  9998","EPOCH":"2022-02-12T21:56:36.789216","TIME_SYSTEM":"UTC","SEMIMAJOR_AXIS":"6925.332","TLE_LINE2":"2 48651  53.0565 311.5207 0001409  77.7536 282.3611 15.06405311 40607","CENTER_NAME":"EARTH","MEAN_ANOMALY":"282.3611","REF_FRAME":"TEME","LAUNCH_DATE":"2021-05-26","INCLINATION":"53.0565","SITE":"AFETR","REV_AT_EPOCH":"4060","MEAN_MOTION":"15.06405311","ELEMENT_SET_NO":"999","PERIOD":"95.592","OBJECT_ID":"2021-044P","BSTAR":"-0.00025256000000","MEAN_MOTION_DDOT":"0.0000000000000","MEAN_MOTION_DOT":"-0.00004042","GP_ID":"195833058","RCS_SIZE":"LARGE","NORAD_CAT_ID":"48651","DECAY_DATE":null,"RA_OF_ASC_NODE":"311.5207","OBJECT_TYPE":"PAYLOAD","COUNTRY_CODE":"US","MEAN_ELEMENT_THEORY":"SGP4"},{"OBJECT_ID":"2021-044Q","BSTAR":"0.00016564000000","MEAN_MOTION_DDOT":"0.0000000000000","MEAN_MOTION_DOT":"0.00002188","GP_ID":"195826976","RCS_SIZE":"LARGE","NORAD_CAT_ID":"48652","DECAY_DATE":null,"RA_OF_ASC_NODE":"312.1343","OBJECT_TYPE":"PAYLOAD","COUNTRY_CODE":"US","MEAN_ELEMENT_THEORY":"SGP4","FILE":"3298687","CLASSIFICATION_TYPE":"U","ARG_OF_PERICENTER":"71.1683","OBJECT_NAME":"STARLINK-2727","APOAPSIS":"548.216","ECCENTRICITY":"0.00015510","PERIAPSIS":"546.067","EPHEMERIS_TYPE":"0","TLE_LINE1":"1 48652U 21044Q   22043.77792932  .00002188  00000-0  16564-3 0  9997","EPOCH":"2022-02-12T18:40:13.093248","TIME_SYSTEM":"UTC","TLE_LINE2":"2 48652  53.0568 312.1343 0001551  71.1683 288.9474 15.06423536 40583","SEMIMAJOR_AXIS":"6925.276","CENTER_NAME":"EARTH","MEAN_ANOMALY":"288.9474","LAUNCH_DATE":"2021-05-26","REF_FRAME":"TEME","INCLINATION":"53.0568","SITE":"AFETR","REV_AT_EPOCH":"4058","MEAN_MOTION":"15.06423536","ELEMENT_SET_NO":"999","PERIOD":"95.591"},{"BSTAR":"-0.00022263000000","OBJECT_ID":"2021-044R","MEAN_MOTION_DDOT":"0.0000000000000","RCS_SIZE":"LARGE","GP_ID":"195833111","MEAN_MOTION_DOT":"-0.00003595","NORAD_CAT_ID":"48653","DECAY_DATE":null,"RA_OF_ASC_NODE":"311.5529","COUNTRY_CODE":"US","OBJECT_TYPE":"PAYLOAD","MEAN_ELEMENT_THEORY":"SGP4","FILE":"3299033","CLASSIFICATION_TYPE":"U","ARG_OF_PERICENTER":"70.7886","OBJECT_NAME":"STARLINK-2720","APOAPSIS":"548.277","ECCENTRICITY":"0.00014950","TLE_LINE1":"1 48653U 21044R   22043.90695066 -.00003595  00000-0 -22263-3 0  9991","EPHEMERIS_TYPE":"0","PERIAPSIS":"546.207","EPOCH":"2022-02-12T21:46:00.537024","TIME_SYSTEM":"UTC","REF_FRAME":"TEME","LAUNCH_DATE":"2021-05-26","SEMIMAJOR_AXIS":"6925.377","TLE_LINE2":"2 48653  53.0555 311.5529 0001495  70.7886 289.3265 15.06390673 40607","CENTER_NAME":"EARTH","MEAN_ANOMALY":"289.3265","REV_AT_EPOCH":"4060","INCLINATION":"53.0555","SITE":"AFETR","MEAN_MOTION":"15.06390673","PERIOD":"95.593","ELEMENT_SET_NO":"999"},{"RA_OF_ASC_NODE":"313.6605","COUNTRY_CODE":"US","OBJECT_TYPE":"PAYLOAD","MEAN_ELEMENT_THEORY":"SGP4","GP_ID":"195821107","RCS_SIZE":"LARGE","MEAN_MOTION_DOT":"0.00003122","NORAD_CAT_ID":"48654","DECAY_DATE":null,"MEAN_MOTION_DDOT":"0.0000000000000","BSTAR":"0.00022829000000","OBJECT_ID":"2021-044S","REV_AT_EPOCH":"3969","SITE":"AFETR","INCLINATION":"53.0548","MEAN_MOTION":"15.06421336","PERIOD":"95.591","ELEMENT_SET_NO":"999","TIME_SYSTEM":"UTC","LAUNCH_DATE":"2021-05-26","REF_FRAME":"TEME","CENTER_NAME":"EARTH","TLE_LINE2":"2 48654  53.0548 313.6605 0001656  69.6707 290.4460 15.06421336 39694","SEMIMAJOR_AXIS":"6925.283","MEAN_ANOMALY":"290.4460","ECCENTRICITY":"0.00016560","TLE_LINE1":"1 48654U 21044S   22043.43882464  .00003122  00000-0  22829-3 0  9992","PERIAPSIS":"546.001","EPHEMERIS_TYPE":"0","EPOCH":"2022-02-12T10:31:54.448896","FILE":"3298493","CLASSIFICATION_TYPE":"U","ARG_OF_PERICENTER":"69.6707","OBJECT_NAME":"STARLINK-2651","APOAPSIS":"548.295"},{"REV_AT_EPOCH":"3969","SITE":"AFETR","INCLINATION":"53.0560","PERIOD":"95.591","ELEMENT_SET_NO":"999","MEAN_MOTION":"15.06414989","TIME_SYSTEM":"UTC","REF_FRAME":"TEME","LAUNCH_DATE":"2021-05-26","TLE_LINE2":"2 48655  53.0560 313.6815 0001580  70.8692 289.2468 15.06414989 39695","SEMIMAJOR_AXIS":"6925.303","MEAN_ANOMALY":"289.2468","CENTER_NAME":"EARTH","ECCENTRICITY":"0.00015800","EPOCH":"2022-02-12T10:26:36.152160","TLE_LINE1":"1 48655U 21044T   22043.43514065  .00000753  00000-0  69402-4 0  9998","PERIAPSIS":"546.073","EPHEMERIS_TYPE":"0","FILE":"3298493","CLASSIFICATION_TYPE":"U","APOAPSIS":"548.262","ARG_OF_PERICENTER":"70.8692","OBJECT_NAME":"STARLINK-2657","RA_OF_ASC_NODE":"313.6815","MEAN_ELEMENT_THEORY":"SGP4","COUNTRY_CODE":"US","OBJECT_TYPE":"PAYLOAD","GP_ID":"195823188","RCS_SIZE":"LARGE","MEAN_MOTION_DOT":"0.00000753","DECAY_DATE":null,"NORAD_CAT_ID":"48655","MEAN_MOTION_DDOT":"0.0000000000000","BSTAR":"0.00006940200000","OBJECT_ID":"2021-044T"},{"MEAN_MOTION_DOT":"0.00004912","RCS_SIZE":"LARGE","GP_ID":"195822109","DECAY_DATE":null,"NORAD_CAT_ID":"48656","RA_OF_ASC_NODE":"314.5829","MEAN_ELEMENT_THEORY":"SGP4","OBJECT_TYPE":"PAYLOAD","COUNTRY_CODE":"US","BSTAR":"0.00034820000000","OBJECT_ID":"2021-044U","MEAN_MOTION_DDOT":"0.0000000000000","TIME_SYSTEM":"UTC","MEAN_ANOMALY":"288.6810","TLE_LINE2":"2 48656  53.0555 314.5829 0001560  71.4348 288.6810 15.06421395 39668","SEMIMAJOR_AXIS":"6925.283","CENTER_NAME":"EARTH","LAUNCH_DATE":"2021-05-26","REF_FRAME":"TEME","INCLINATION":"53.0555","SITE":"AFETR","REV_AT_EPOCH":"3966","ELEMENT_SET_NO":"999","PERIOD":"95.591","MEAN_MOTION":"15.06421395","CLASSIFICATION_TYPE":"U","FILE":"3298493","APOAPSIS":"548.228","ARG_OF_PERICENTER":"71.4348","OBJECT_NAME":"STARLINK-2701","ECCENTRICITY":"0.00015600","EPOCH":"2022-02-12T05:34:40.888416","PERIAPSIS":"546.068","EPHEMERIS_TYPE":"0","TLE_LINE1":"1 48656U 21044U   22043.23241769  .00004912  00000-0  34820-3 0  9991"},{"ECCENTRICITY":"0.00021020","EPOCH":"2022-02-12T18:13:42.073536","EPHEMERIS_TYPE":"0","PERIAPSIS":"545.724","TLE_LINE1":"1 48657U 21044V   22043.75951474  .00000832  00000-0  74735-4 0  9997","FILE":"3298690","CLASSIFICATION_TYPE":"U","APOAPSIS":"548.635","OBJECT_NAME":"STARLINK-2734","ARG_OF_PERICENTER":"62.4404","SITE":"AFETR","INCLINATION":"53.0560","REV_AT_EPOCH":"4064","ELEMENT_SET_NO":"999","PERIOD":"95.591","MEAN_MOTION":"15.06411043","TIME_SYSTEM":"UTC","TLE_LINE2":"2 48657  53.0560 312.2180 0002102  62.4404 297.6799 15.06411043 40641","SEMIMAJOR_AXIS":"6925.315","CENTER_NAME":"EARTH","MEAN_ANOMALY":"297.6799","LAUNCH_DATE":"2021-05-26","REF_FRAME":"TEME","MEAN_MOTION_DDOT":"0.0000000000000","BSTAR":"0.00007473500000","OBJECT_ID":"2021-044V","RA_OF_ASC_NODE":"312.2180","MEAN_ELEMENT_THEORY":"SGP4","OBJECT_TYPE":"PAYLOAD","COUNTRY_CODE":"US","MEAN_MOTION_DOT":"0.00000832","GP_ID":"195827017","RCS_SIZE":"LARGE","DECAY_DATE":null,"NORAD_CAT_ID":"48657"}];
